SL-14 R/B               
1 16792U 86046B   26087.19516089  .00000554  00000+0  60959-4 0  9997
2 16792  82.4801  62.6917 0023495 163.1261 197.0742 14.85607984129154
SL-14 R/B               
1 16882U 86055B   26087.12224635  .00000426  00000+0  46342-4 0  9991
2 16882  82.5171 109.3446 0017299 271.3374 147.5268 14.85658391122102
AJISAI (EGS)            
1 16908U 86061A   26087.28734005 -.00000092  00000+0  39727-4 0  9990
2 16908  50.0111  36.1585 0011328 334.9749 188.2521 12.44515650470311
SL-14 R/B               
1 17567U 87024B   26086.95249459  .00000496  00000+0  53661-4 0  9999
2 17567  82.5251  75.5932 0017732 195.4786 164.5891 14.86149012 90843
COSMOS 1833             
1 17589U 87027A   26086.98246493 -.00000277  00000+0 -12227-3 0  9995
2 17589  70.9173 287.5700 0023315 187.6565 172.4204 14.13047875 12902
SL-16 R/B               
1 17590U 87027B   26087.25599345 -.00000069  00000+0 -10325-4 0  9992
2 17590  71.0014 237.3672 0002856  97.2203 262.9245 14.17165590 17974
SL-14 R/B               
1 17912U 87038B   26086.88947990  .00000480  00000+0  52733-4 0  9997
2 17912  82.4978 279.6579 0020731 103.5342 256.8185 14.85385145 81936
COSMOS 1844             
1 17973U 87041A   26087.13960657  .00000366  00000+0  21458-3 0  9994
2 17973  70.9014 355.2615 0030995 350.9526   9.1033 14.14556004  6195
SL-14 R/B               
1 18153U 87055B   26087.13253886  .00000411  00000+0  44589-4 0  9991
2 18153  82.5008 331.6523 0019567 315.9040  44.0615 14.85647373 72676
COSMOS 1867             
1 18187U 87060A   26087.16414818 -.00000002  00000+0  36864-4 0  9995
2 18187  65.0092 254.9648 0014803 279.7329  80.2083 14.31505833 22583
SL-14 R/B               
1 18749U 88001B   26087.26389154  .00000521  00000+0  57336-4 0  9992
2 18749  82.5162 177.8962 0018288 172.2874 187.8627 14.85547995 44782
COSMOS 1933             
1 18958U 88020A   26086.91678208  .00004252  00000+0  20675-3 0  9997
2 18958  82.5122 232.8735 0005137 127.5935 232.5766 15.18151155 52990
